<?xml version="1.0" encoding="UTF-8"?>
<response xmlns:xsd="http://www.w3.org/2001/XMLSchema" xmlns:xsi="http://www.w3.org/2001/XML-Schema-instance" version="1.2" xsi:noNamespaceSchemaLocation="http://weather.aero/schema/metar1_2.xsd">
  <request_index>385538</request_index>
  <data_source name="metars" />
  <request type="retrieve" />
  <errors />
  <warnings />
  <time_taken_ms>29</time_taken_ms>
  <data num_results="6">
    <METAR>
      <raw_text>KGSH 170413Z AUTO 30007KT 3SM -SN BR BKN008 BKN013 OVC030 00/M01 A3001 RMK AO2 CIG 006V010 P0000</raw_text>
      <station_id>KGSH</station_id>
      <observation_time>2008-11-17T04:13:00Z</observation_time>
      <latitude>41.53</latitude>
      <longitude>-85.78</longitude>
      <temp_c>0.0</temp_c>
      <dewpoint_c>-1.0</dewpoint_c>
      <wind_dir_degrees>300</wind_dir_degrees>
      <wind_speed_kt>7</wind_speed_kt>
      <visibility_statute_mi>3.0</visibility_statute_mi>
      <altim_in_hg>30.008858</altim_in_hg>
      <quality_control_flags>
        <auto>TRUE</auto>
        <auto_station>TRUE</auto_station>
      </quality_control_flags>
      <wx_string>-SN BR</wx_string>
      <sky_condition sky_cover="BKN" cloud_base_ft_agl="800" />
      <sky_condition sky_cover="BKN" cloud_base_ft_agl="1300" />
      <sky_condition sky_cover="OVC" cloud_base_ft_agl="3000" />
      <flight_category>IFR</flight_category>
      <precip_in>0.0050</precip_in>
      <metar_type>SPECI</metar_type>
      <elevation_m>252.0</elevation_m>
    </METAR>
    <METAR>
      <raw_text>KGSH 170410Z AUTO 31006KT 2 1/2SM -SN BR SCT008 BKN013 OVC030 00/M01 A3001 RMK AO2 P0000</raw_text>
      <station_id>KGSH</station_id>
      <observation_time>2008-11-17T04:10:00Z</observation_time>
      <latitude>41.53</latitude>
      <longitude>-85.78</longitude>
      <temp_c>0.0</temp_c>
      <dewpoint_c>-1.0</dewpoint_c>
      <wind_dir_degrees>310</wind_dir_degrees>
      <wind_speed_kt>6</wind_speed_kt>
      <visibility_statute_mi>2.5</visibility_statute_mi>
      <altim_in_hg>30.008858</altim_in_hg>
      <quality_control_flags>
        <auto>TRUE</auto>
        <auto_station>TRUE</auto_station>
      </quality_control_flags>
      <wx_string>-SN BR</wx_string>
      <sky_condition sky_cover="SCT" cloud_base_ft_agl="800" />
      <sky_condition sky_cover="BKN" cloud_base_ft_agl="1300" />
      <sky_condition sky_cover="OVC" cloud_base_ft_agl="3000" />
      <flight_category>IFR</flight_category>
      <precip_in>0.0050</precip_in>
      <metar_type>METAR</metar_type>
      <elevation_m>252.0</elevation_m>
    </METAR>
    <METAR>
      <raw_text>KGSH 170400Z AUTO 30006KT 2 1/2SM -SN BR BKN008 OVC013 00/M01 A3001 RMK AO2 CIG 006V013 P0000</raw_text>
      <station_id>KGSH</station_id>
      <observation_time>2008-11-17T04:00:00Z</observation_time>
      <latitude>41.53</latitude>
      <longitude>-85.78</longitude>
      <temp_c>0.0</temp_c>
      <dewpoint_c>-1.0</dewpoint_c>
      <wind_dir_degrees>300</wind_dir_degrees>
      <wind_speed_kt>6</wind_speed_kt>
      <visibility_statute_mi>2.5</visibility_statute_mi>
      <altim_in_hg>30.008858</altim_in_hg>
      <quality_control_flags>
        <auto>TRUE</auto>
        <auto_station>TRUE</auto_station>
      </quality_control_flags>
      <wx_string>-SN BR</wx_string>
      <sky_condition sky_cover="BKN" cloud_base_ft_agl="800" />
      <sky_condition sky_cover="OVC" cloud_base_ft_agl="1300" />
      <flight_category>IFR</flight_category>
      <precip_in>0.0050</precip_in>
      <metar_type>SPECI</metar_type>
      <elevation_m>252.0</elevation_m>
    </METAR>
    <METAR>
      <raw_text>KGSH 170353Z AUTO 29007KT 2 1/2SM -SN BR BKN013 OVC019 01/M01 A3000 RMK AO2 SLP169 P0000 T00061011</raw_text>
      <station_id>KGSH</station_id>
      <observation_time>2008-11-17T03:53:00Z</observation_time>
      <latitude>41.53</latitude>
      <longitude>-85.78</longitude>
      <temp_c>0.6</temp_c>
      <dewpoint_c>-1.1</dewpoint_c>
      <wind_dir_degrees>290</wind_dir_degrees>
      <wind_speed_kt>7</wind_speed_kt>
      <visibility_statute_mi>2.5</visibility_statute_mi>
      <altim_in_hg>30.0</altim_in_hg>
      <sea_level_pressure_mb>1016.9</sea_level_pressure_mb>
      <quality_control_flags>
        <auto>TRUE</auto>
        <auto_station>TRUE</auto_station>
      </quality_control_flags>
      <wx_string>-SN BR</wx_string>
      <sky_condition sky_cover="BKN" cloud_base_ft_agl="1300" />
      <sky_condition sky_cover="OVC" cloud_base_ft_agl="1900" />
      <flight_category>IFR</flight_category>
      <precip_in>0.0050</precip_in>
      <metar_type>METAR</metar_type>
      <elevation_m>252.0</elevation_m>
    </METAR>
    <METAR>
      <raw_text>KGSH 170344Z AUTO 27009KT 3SM -SN BR BKN013 OVC019 00/M01 A3000 RMK AO2 P0000</raw_text>
      <station_id>KGSH</station_id>
      <observation_time>2008-11-17T03:44:00Z</observation_time>
      <latitude>41.53</latitude>
      <longitude>-85.78</longitude>
      <temp_c>0.0</temp_c>
      <dewpoint_c>-1.0</dewpoint_c>
      <wind_dir_degrees>270</wind_dir_degrees>
      <wind_speed_kt>9</wind_speed_kt>
      <visibility_statute_mi>3.0</visibility_statute_mi>
      <altim_in_hg>30.0</altim_in_hg>
      <quality_control_flags>
        <auto>TRUE</auto>
        <auto_station>TRUE</auto_station>
      </quality_control_flags>
      <wx_string>-SN BR</wx_string>
      <sky_condition sky_cover="BKN" cloud_base_ft_agl="1300" />
      <sky_condition sky_cover="OVC" cloud_base_ft_agl="1900" />
      <flight_category>MVFR</flight_category>
      <precip_in>0.0050</precip_in>
      <metar_type>METAR</metar_type>
      <elevation_m>252.0</elevation_m>
    </METAR>
    <METAR>
      <raw_text>KGSH 170339Z AUTO 28007KT 2 1/2SM -SN BR FEW009 OVC017 00/M01 A3000 RMK AO2 P0000</raw_text>
      <station_id>KGSH</station_id>
      <observation_time>2008-11-17T03:39:00Z</observation_time>
      <latitude>41.53</latitude>
      <longitude>-85.78</longitude>
      <temp_c>0.0</temp_c>
      <dewpoint_c>-1.0</dewpoint_c>
      <wind_dir_degrees>280</wind_dir_degrees>
      <wind_speed_kt>7</wind_speed_kt>
      <visibility_statute_mi>2.5</visibility_statute_mi>
      <altim_in_hg>30.0</altim_in_hg>
      <quality_control_flags>
        <auto>TRUE</auto>
        <auto_station>TRUE</auto_station>
      </quality_control_flags>
      <wx_string>-SN BR</wx_string>
      <sky_condition sky_cover="FEW" cloud_base_ft_agl="900" />
      <sky_condition sky_cover="OVC" cloud_base_ft_agl="1700" />
      <flight_category>IFR</flight_category>
      <precip_in>0.0050</precip_in>
      <metar_type>SPECI</metar_type>
      <elevation_m>252.0</elevation_m>
    </METAR>
  </data>
</response>

